{"type":"FeatureCollection","features":[{"type":"Feature","properties":{"nombre":"Acuifero Morroa","unidad":"Formacion Morroa (Tpm)","area_km2":1120,"espesor_medio_m":320,"fuente":"Digitalizado sobre mapa geologico Fm. Morroa y mapa de recarga 2023"},"geometry":{"type":"Polygon","coordinates":[[[-75.205,9.575],[-75.16,9.545],[-75.175,9.495],[-75.21,9.465],[-75.235,9.43],[-75.23,9.4],[-75.245,9.37],[-75.25,9.34],[-75.26,9.31],[-75.275,9.275],[-75.295,9.24],[-75.315,9.21],[-75.335,9.18],[-75.35,9.15],[-75.375,9.125],[-75.41,9.13],[-75.44,9.16],[-75.445,9.195],[-75.425,9.23],[-75.41,9.265],[-75.42,9.295],[-75.43,9.325],[-75.405,9.35],[-75.375,9.375],[-75.35,9.405],[-75.325,9.435],[-75.305,9.47],[-75.285,9.505],[-75.265,9.54],[-75.24,9.565],[-75.205,9.575]]]}}]}