{"type":"FeatureCollection","features":[{"type":"Feature","properties":{"codigo":"POZ-SIN-01","nombre":"Sincelejo Norte","municipio":"Sincelejo","profundidad_m":310,"cota_terreno_msnm":213,"nivel_estatico_m":75.94,"cota_piezometrica_msnm":137.06,"tendencia_m_ano":0.85,"descenso_acumulado_m":13.43,"minimo_m":61.27,"maximo_m":76.24,"promedio_m":68.82,"periodo":"2010-2025","n_registros":192,"serie":[["2010-01",62.51],["2010-02",62.36],["2010-03",63.24],["2010-04",62.77],["2010-05",62.24],["2010-06",62.29],["2010-07",62.82],["2010-08",62.25],["2010-09",61.64],["2010-10",61.27],["2010-11",62.04],["2010-12",62.46],["2011-01",63.11],["2011-02",63.61],["2011-03",63.76],["2011-04",64.03],["2011-05",63.23],["2011-06",62.61],["2011-07",62.72],["2011-08",62.66],["2011-09",62.63],["2011-10",62.82],["2011-11",63.49],["2011-12",63.98],["2012-01",64.04],["2012-02",64.39],["2012-03",64.34],["2012-04",63.68],["2012-05",63.02],["2012-06",63.11],["2012-07",63.71],["2012-08",63.71],["2012-09",63.64],["2012-10",63.58],["2012-11",64.43],["2012-12",65.0],["2013-01",66.31],["2013-02",65.58],["2013-03",65.32],["2013-04",65.34],["2013-05",64.4],["2013-06",63.94],["2013-07",64.83],["2013-08",64.84],["2013-09",64.52],["2013-10",64.79],["2013-11",65.37],["2013-12",65.95],["2014-01",66.56],["2014-02",66.78],["2014-03",66.83],["2014-04",66.67],["2014-05",65.95],["2014-06",66.07],["2014-07",66.57],["2014-08",65.73],["2014-09",65.42],["2014-10",65.29],["2014-11",65.71],["2014-12",66.67],["2015-01",66.61],["2015-02",66.76],["2015-03",66.84],["2015-04",66.84],["2015-05",65.75],["2015-06",66.07],["2015-07",66.24],["2015-08",65.96],["2015-09",65.53],["2015-10",65.64],["2015-11",66.87],["2015-12",67.45],["2016-01",67.78],["2016-02",67.88],["2016-03",67.46],["2016-04",67.52],["2016-05",66.75],["2016-06",67.33],["2016-07",67.28],["2016-08",67.82],["2016-09",67.74],["2016-10",67.27],["2016-11",67.89],["2016-12",68.64],["2017-01",69.38],["2017-02",69.34],["2017-03",69.58],["2017-04",69.47],["2017-05",68.19],["2017-06",67.99],["2017-07",68.5],["2017-08",68.06],["2017-09",67.85],["2017-10",67.45],["2017-11",67.82],["2017-12",68.99],["2018-01",69.44],["2018-02",69.04],["2018-03",69.31],["2018-04",68.55],["2018-05",68.49],["2018-06",68.61],["2018-07",68.82],["2018-08",69.03],["2018-09",68.65],["2018-10",68.79],["2018-11",69.4],["2018-12",70.03],["2019-01",70.38],["2019-02",70.36],["2019-03",70.69],["2019-04",70.58],["2019-05",69.42],["2019-06",69.34],["2019-07",69.74],["2019-08",69.61],["2019-09",69.4],["2019-10",68.85],["2019-11",69.33],["2019-12",69.87],["2020-01",70.61],["2020-02",70.95],["2020-03",71.58],["2020-04",71.61],["2020-05",70.42],["2020-06",70.4],["2020-07",70.97],["2020-08",70.17],["2020-09",70.24],["2020-10",70.03],["2020-11",70.78],["2020-12",71.87],["2021-01",71.93],["2021-02",71.83],["2021-03",72.17],["2021-04",72.02],["2021-05",70.67],["2021-06",70.86],["2021-07",71.21],["2021-08",71.29],["2021-09",70.56],["2021-10",71.16],["2021-11",71.68],["2021-12",72.52],["2022-01",72.84],["2022-02",72.77],["2022-03",73.45],["2022-04",73.46],["2022-05",72.38],["2022-06",72.48],["2022-07",72.47],["2022-08",72.09],["2022-09",71.75],["2022-10",71.68],["2022-11",72.39],["2022-12",72.99],["2023-01",73.42],["2023-02",73.62],["2023-03",74.23],["2023-04",74.25],["2023-05",73.63],["2023-06",73.25],["2023-07",73.39],["2023-08",73.57],["2023-09",73.27],["2023-10",73.35],["2023-11",73.6],["2023-12",74.57],["2024-01",74.83],["2024-02",75.36],["2024-03",75.66],["2024-04",75.62],["2024-05",74.53],["2024-06",74.58],["2024-07",74.95],["2024-08",75.36],["2024-09",74.29],["2024-10",74.41],["2024-11",74.99],["2024-12",75.5],["2025-01",75.82],["2025-02",75.78],["2025-03",76.24],["2025-04",75.93],["2025-05",75.11],["2025-06",75.39],["2025-07",75.83],["2025-08",75.47],["2025-09",74.34],["2025-10",74.44],["2025-11",75.27],["2025-12",75.94]],"origen":"demo"},"geometry":{"type":"Point","coordinates":[-75.382,9.335]}},{"type":"Feature","properties":{"codigo":"POZ-SIN-02","nombre":"La Palma","municipio":"Sincelejo","profundidad_m":340,"cota_terreno_msnm":205,"nivel_estatico_m":85.98,"cota_piezometrica_msnm":119.02,"tendencia_m_ano":1.05,"descenso_acumulado_m":16.5,"minimo_m":68.22,"maximo_m":85.98,"promedio_m":76.79,"periodo":"2010-2025","n_registros":192,"serie":[["2010-01",69.48],["2010-02",69.8],["2010-03",70.03],["2010-04",69.33],["2010-05",68.7],["2010-06",68.22],["2010-07",68.87],["2010-08",68.81],["2010-09",68.84],["2010-10",68.73],["2010-11",69.17],["2010-12",69.88],["2011-01",70.55],["2011-02",70.43],["2011-03",69.98],["2011-04",70.14],["2011-05",69.42],["2011-06",69.44],["2011-07",69.59],["2011-08",70.44],["2011-09",69.83],["2011-10",69.66],["2011-11",70.33],["2011-12",71.15],["2012-01",71.96],["2012-02",72.26],["2012-03",72.38],["2012-04",71.79],["2012-05",70.72],["2012-06",70.59],["2012-07",70.89],["2012-08",70.89],["2012-09",70.69],["2012-10",70.04],["2012-11",71.28],["2012-12",72.0],["2013-01",72.61],["2013-02",72.45],["2013-03",72.82],["2013-04",72.56],["2013-05",71.39],["2013-06",71.79],["2013-07",72.19],["2013-08",71.59],["2013-09",71.35],["2013-10",71.04],["2013-11",71.42],["2013-12",72.25],["2014-01",72.69],["2014-02",72.85],["2014-03",73.24],["2014-04",73.31],["2014-05",72.55],["2014-06",72.4],["2014-07",72.5],["2014-08",72.7],["2014-09",72.31],["2014-10",72.27],["2014-11",72.88],["2014-12",73.82],["2015-01",74.46],["2015-02",74.12],["2015-03",74.6],["2015-04",74.27],["2015-05",73.55],["2015-06",73.63],["2015-07",73.73],["2015-08",73.26],["2015-09",73.42],["2015-10",73.66],["2015-11",74.73],["2015-12",75.09],["2016-01",75.92],["2016-02",75.78],["2016-03",75.82],["2016-04",76.19],["2016-05",75.28],["2016-06",74.82],["2016-07",75.14],["2016-08",74.83],["2016-09",74.54],["2016-10",74.8],["2016-11",75.37],["2016-12",76.18],["2017-01",76.59],["2017-02",77.09],["2017-03",77.59],["2017-04",76.93],["2017-05",76.16],["2017-06",76.06],["2017-07",76.53],["2017-08",76.46],["2017-09",76.15],["2017-10",76.28],["2017-11",76.51],["2017-12",77.21],["2018-01",77.51],["2018-02",77.85],["2018-03",78.04],["2018-04",77.27],["2018-05",76.42],["2018-06",76.0],["2018-07",76.82],["2018-08",76.57],["2018-09",76.09],["2018-10",76.26],["2018-11",76.74],["2018-12",77.64],["2019-01",78.44],["2019-02",78.52],["2019-03",78.54],["2019-04",78.06],["2019-05",77.09],["2019-06",77.84],["2019-07",77.71],["2019-08",77.48],["2019-09",77.42],["2019-10",77.75],["2019-11",78.46],["2019-12",79.15],["2020-01",79.47],["2020-02",79.94],["2020-03",80.53],["2020-04",80.55],["2020-05",79.66],["2020-06",79.03],["2020-07",78.76],["2020-08",79.2],["2020-09",78.67],["2020-10",78.13],["2020-11",78.46],["2020-12",79.19],["2021-01",79.68],["2021-02",80.45],["2021-03",80.49],["2021-04",80.15],["2021-05",79.56],["2021-06",79.7],["2021-07",79.67],["2021-08",79.77],["2021-09",80.0],["2021-10",79.79],["2021-11",80.44],["2021-12",81.28],["2022-01",81.29],["2022-02",81.23],["2022-03",81.46],["2022-04",81.51],["2022-05",80.48],["2022-06",81.13],["2022-07",81.17],["2022-08",81.39],["2022-09",81.12],["2022-10",81.24],["2022-11",82.17],["2022-12",83.07],["2023-01",83.05],["2023-02",83.34],["2023-03",83.56],["2023-04",82.82],["2023-05",82.58],["2023-06",82.54],["2023-07",83.03],["2023-08",82.65],["2023-09",82.45],["2023-10",81.86],["2023-11",82.65],["2023-12",83.65],["2024-01",83.93],["2024-02",84.93],["2024-03",84.92],["2024-04",85.03],["2024-05",83.76],["2024-06",83.75],["2024-07",84.05],["2024-08",83.87],["2024-09",83.37],["2024-10",82.73],["2024-11",84.09],["2024-12",84.3],["2025-01",84.77],["2025-02",84.84],["2025-03",85.24],["2025-04",84.47],["2025-05",83.96],["2025-06",84.05],["2025-07",84.41],["2025-08",83.91],["2025-09",83.66],["2025-10",84.19],["2025-11",84.8],["2025-12",85.98]],"origen":"demo"},"geometry":{"type":"Point","coordinates":[-75.401,9.302]}},{"type":"Feature","properties":{"codigo":"POZ-SIN-03","nombre":"Venecia","municipio":"Sincelejo","profundidad_m":295,"cota_terreno_msnm":198,"nivel_estatico_m":74.19,"cota_piezometrica_msnm":123.81,"tendencia_m_ano":0.92,"descenso_acumulado_m":14.3,"minimo_m":58.88,"maximo_m":74.51,"promedio_m":66.38,"periodo":"2010-2025","n_registros":192,"serie":[["2010-01",59.89],["2010-02",60.28],["2010-03",59.94],["2010-04",59.58],["2010-05",59.05],["2010-06",58.88],["2010-07",59.55],["2010-08",59.44],["2010-09",59.04],["2010-10",59.05],["2010-11",60.01],["2010-12",60.65],["2011-01",60.75],["2011-02",60.53],["2011-03",60.19],["2011-04",60.69],["2011-05",59.86],["2011-06",59.97],["2011-07",60.74],["2011-08",60.21],["2011-09",59.73],["2011-10",59.66],["2011-11",60.34],["2011-12",60.68],["2012-01",61.29],["2012-02",61.92],["2012-03",61.98],["2012-04",62.07],["2012-05",61.4],["2012-06",61.07],["2012-07",61.76],["2012-08",61.6],["2012-09",61.33],["2012-10",61.03],["2012-11",61.59],["2012-12",62.18],["2013-01",62.36],["2013-02",62.27],["2013-03",62.3],["2013-04",62.39],["2013-05",61.33],["2013-06",61.23],["2013-07",61.87],["2013-08",62.08],["2013-09",61.37],["2013-10",61.5],["2013-11",61.84],["2013-12",63.0],["2014-01",63.42],["2014-02",63.49],["2014-03",63.52],["2014-04",63.16],["2014-05",62.63],["2014-06",62.44],["2014-07",63.04],["2014-08",62.91],["2014-09",61.75],["2014-10",61.98],["2014-11",62.89],["2014-12",63.58],["2015-01",64.87],["2015-02",64.65],["2015-03",64.74],["2015-04",64.43],["2015-05",63.86],["2015-06",63.22],["2015-07",63.92],["2015-08",63.23],["2015-09",62.54],["2015-10",62.98],["2015-11",63.5],["2015-12",63.83],["2016-01",64.32],["2016-02",65.08],["2016-03",65.18],["2016-04",64.82],["2016-05",63.98],["2016-06",63.76],["2016-07",64.08],["2016-08",64.55],["2016-09",64.28],["2016-10",64.06],["2016-11",65.29],["2016-12",65.73],["2017-01",66.36],["2017-02",66.78],["2017-03",66.57],["2017-04",66.37],["2017-05",65.54],["2017-06",65.39],["2017-07",66.26],["2017-08",66.32],["2017-09",65.07],["2017-10",65.29],["2017-11",65.73],["2017-12",66.95],["2018-01",67.83],["2018-02",68.23],["2018-03",67.97],["2018-04",67.3],["2018-05",66.53],["2018-06",66.92],["2018-07",67.08],["2018-08",67.29],["2018-09",66.86],["2018-10",66.45],["2018-11",66.83],["2018-12",67.29],["2019-01",68.28],["2019-02",68.44],["2019-03",68.53],["2019-04",68.17],["2019-05",67.76],["2019-06",67.64],["2019-07",68.17],["2019-08",67.97],["2019-09",67.75],["2019-10",67.19],["2019-11",67.88],["2019-12",68.69],["2020-01",69.03],["2020-02",69.3],["2020-03",69.25],["2020-04",69.04],["2020-05",68.41],["2020-06",68.47],["2020-07",68.44],["2020-08",68.53],["2020-09",68.12],["2020-10",67.8],["2020-11",68.58],["2020-12",69.94],["2021-01",70.83],["2021-02",70.79],["2021-03",70.23],["2021-04",69.94],["2021-05",68.83],["2021-06",68.62],["2021-07",69.16],["2021-08",69.56],["2021-09",69.47],["2021-10",69.03],["2021-11",69.78],["2021-12",69.96],["2022-01",70.27],["2022-02",70.67],["2022-03",71.04],["2022-04",70.71],["2022-05",69.62],["2022-06",69.58],["2022-07",70.22],["2022-08",69.92],["2022-09",69.42],["2022-10",69.5],["2022-11",70.62],["2022-12",71.32],["2023-01",71.36],["2023-02",71.47],["2023-03",71.08],["2023-04",71.07],["2023-05",71.37],["2023-06",71.01],["2023-07",71.2],["2023-08",71.51],["2023-09",70.92],["2023-10",70.87],["2023-11",71.53],["2023-12",72.19],["2024-01",72.45],["2024-02",72.36],["2024-03",72.61],["2024-04",72.55],["2024-05",71.7],["2024-06",71.46],["2024-07",71.92],["2024-08",72.09],["2024-09",72.05],["2024-10",72.59],["2024-11",73.56],["2024-12",74.27],["2025-01",74.22],["2025-02",74.29],["2025-03",74.51],["2025-04",73.9],["2025-05",73.03],["2025-06",72.71],["2025-07",73.28],["2025-08",73.12],["2025-09",73.05],["2025-10",72.5],["2025-11",73.26],["2025-12",74.19]],"origen":"demo"},"geometry":{"type":"Point","coordinates":[-75.365,9.287]}},{"type":"Feature","properties":{"codigo":"POZ-SIN-04","nombre":"El Cortijo","municipio":"Sincelejo","profundidad_m":360,"cota_terreno_msnm":186,"nivel_estatico_m":90.28,"cota_piezometrica_msnm":95.72,"tendencia_m_ano":1.18,"descenso_acumulado_m":17.94,"minimo_m":71.43,"maximo_m":90.83,"promedio_m":81.18,"periodo":"2010-2025","n_registros":192,"serie":[["2010-01",72.34],["2010-02",72.78],["2010-03",72.89],["2010-04",73.03],["2010-05",72.53],["2010-06",72.17],["2010-07",72.5],["2010-08",72.06],["2010-09",71.45],["2010-10",71.43],["2010-11",72.32],["2010-12",73.62],["2011-01",73.21],["2011-02",73.4],["2011-03",73.66],["2011-04",73.43],["2011-05",72.72],["2011-06",73.13],["2011-07",72.94],["2011-08",72.92],["2011-09",72.97],["2011-10",72.82],["2011-11",73.5],["2011-12",74.27],["2012-01",74.36],["2012-02",74.49],["2012-03",74.94],["2012-04",74.82],["2012-05",73.99],["2012-06",73.51],["2012-07",73.77],["2012-08",73.56],["2012-09",73.51],["2012-10",73.61],["2012-11",74.56],["2012-12",74.96],["2013-01",76.12],["2013-02",76.31],["2013-03",76.56],["2013-04",76.3],["2013-05",75.56],["2013-06",75.64],["2013-07",75.8],["2013-08",75.64],["2013-09",75.41],["2013-10",74.88],["2013-11",75.86],["2013-12",76.25],["2014-01",77.36],["2014-02",77.59],["2014-03",77.31],["2014-04",77.31],["2014-05",77.1],["2014-06",77.51],["2014-07",77.84],["2014-08",77.23],["2014-09",76.82],["2014-10",76.55],["2014-11",76.86],["2014-12",77.78],["2015-01",78.51],["2015-02",78.5],["2015-03",78.69],["2015-04",78.77],["2015-05",78.37],["2015-06",78.81],["2015-07",78.89],["2015-08",78.75],["2015-09",78.05],["2015-10",78.11],["2015-11",78.82],["2015-12",79.01],["2016-01",80.12],["2016-02",80.07],["2016-03",80.23],["2016-04",79.22],["2016-05",78.54],["2016-06",79.18],["2016-07",79.64],["2016-08",78.92],["2016-09",78.88],["2016-10",78.39],["2016-11",79.46],["2016-12",80.0],["2017-01",80.84],["2017-02",80.62],["2017-03",80.8],["2017-04",80.34],["2017-05",79.15],["2017-06",78.91],["2017-07",79.37],["2017-08",79.98],["2017-09",80.01],["2017-10",80.12],["2017-11",80.91],["2017-12",81.69],["2018-01",82.06],["2018-02",82.69],["2018-03",83.11],["2018-04",82.82],["2018-05",81.29],["2018-06",81.22],["2018-07",81.68],["2018-08",81.37],["2018-09",81.32],["2018-10",81.4],["2018-11",81.59],["2018-12",82.49],["2019-01",82.4],["2019-02",82.64],["2019-03",82.71],["2019-04",82.66],["2019-05",81.77],["2019-06",81.7],["2019-07",82.25],["2019-08",82.66],["2019-09",82.19],["2019-10",82.03],["2019-11",82.66],["2019-12",82.69],["2020-01",83.01],["2020-02",83.76],["2020-03",84.7],["2020-04",84.48],["2020-05",83.33],["2020-06",83.85],["2020-07",83.9],["2020-08",83.8],["2020-09",82.7],["2020-10",82.9],["2020-11",83.9],["2020-12",84.95],["2021-01",85.58],["2021-02",85.78],["2021-03",85.38],["2021-04",85.31],["2021-05",84.62],["2021-06",84.86],["2021-07",85.1],["2021-08",85.01],["2021-09",84.69],["2021-10",84.84],["2021-11",85.31],["2021-12",87.02],["2022-01",87.53],["2022-02",87.78],["2022-03",87.75],["2022-04",87.75],["2022-05",87.03],["2022-06",86.39],["2022-07",87.43],["2022-08",87.5],["2022-09",86.71],["2022-10",86.34],["2022-11",87.14],["2022-12",87.59],["2023-01",88.38],["2023-02",88.76],["2023-03",88.37],["2023-04",88.47],["2023-05",87.55],["2023-06",86.8],["2023-07",87.3],["2023-08",87.44],["2023-09",86.86],["2023-10",87.16],["2023-11",88.04],["2023-12",89.29],["2024-01",88.98],["2024-02",89.21],["2024-03",89.54],["2024-04",89.5],["2024-05",88.93],["2024-06",88.22],["2024-07",89.04],["2024-08",88.61],["2024-09",88.26],["2024-10",88.52],["2024-11",89.32],["2024-12",90.08],["2025-01",90.66],["2025-02",90.83],["2025-03",90.78],["2025-04",90.56],["2025-05",89.85],["2025-06",89.76],["2025-07",90.17],["2025-08",90.3],["2025-09",89.88],["2025-10",89.37],["2025-11",89.46],["2025-12",90.28]],"origen":"demo"},"geometry":{"type":"Point","coordinates":[-75.406,9.276]}},{"type":"Feature","properties":{"codigo":"POZ-MOR-01","nombre":"Morroa Cabecera","municipio":"Morroa","profundidad_m":240,"cota_terreno_msnm":248,"nivel_estatico_m":49.3,"cota_piezometrica_msnm":198.7,"tendencia_m_ano":0.48,"descenso_acumulado_m":6.81,"minimo_m":41.12,"maximo_m":49.44,"promedio_m":45.42,"periodo":"2010-2025","n_registros":192,"serie":[["2010-01",42.49],["2010-02",42.67],["2010-03",42.97],["2010-04",42.57],["2010-05",41.36],["2010-06",41.55],["2010-07",41.73],["2010-08",41.74],["2010-09",41.56],["2010-10",41.19],["2010-11",41.44],["2010-12",42.11],["2011-01",42.83],["2011-02",42.99],["2011-03",42.83],["2011-04",42.72],["2011-05",41.12],["2011-06",41.58],["2011-07",42.22],["2011-08",42.03],["2011-09",42.01],["2011-10",41.68],["2011-11",42.21],["2011-12",42.77],["2012-01",43.52],["2012-02",43.54],["2012-03",44.07],["2012-04",44.39],["2012-05",43.11],["2012-06",42.78],["2012-07",42.6],["2012-08",42.49],["2012-09",41.91],["2012-10",41.72],["2012-11",42.48],["2012-12",43.04],["2013-01",43.39],["2013-02",43.52],["2013-03",44.21],["2013-04",43.62],["2013-05",42.9],["2013-06",42.95],["2013-07",43.19],["2013-08",43.2],["2013-09",43.2],["2013-10",42.39],["2013-11",42.95],["2013-12",43.74],["2014-01",44.31],["2014-02",44.69],["2014-03",45.21],["2014-04",44.28],["2014-05",43.24],["2014-06",43.01],["2014-07",43.78],["2014-08",43.57],["2014-09",42.84],["2014-10",42.44],["2014-11",43.01],["2014-12",43.51],["2015-01",44.57],["2015-02",44.65],["2015-03",45.35],["2015-04",45.02],["2015-05",44.14],["2015-06",43.77],["2015-07",44.35],["2015-08",44.03],["2015-09",43.8],["2015-10",43.68],["2015-11",44.37],["2015-12",44.88],["2016-01",45.41],["2016-02",45.66],["2016-03",45.81],["2016-04",45.62],["2016-05",44.53],["2016-06",44.65],["2016-07",44.5],["2016-08",44.4],["2016-09",44.36],["2016-10",43.9],["2016-11",44.4],["2016-12",45.06],["2017-01",45.28],["2017-02",45.04],["2017-03",45.2],["2017-04",45.22],["2017-05",44.65],["2017-06",44.84],["2017-07",45.59],["2017-08",44.89],["2017-09",44.68],["2017-10",44.59],["2017-11",44.98],["2017-12",45.91],["2018-01",46.54],["2018-02",46.07],["2018-03",45.99],["2018-04",45.65],["2018-05",45.12],["2018-06",44.85],["2018-07",45.33],["2018-08",44.66],["2018-09",44.84],["2018-10",45.06],["2018-11",45.43],["2018-12",46.02],["2019-01",46.51],["2019-02",46.98],["2019-03",47.24],["2019-04",46.76],["2019-05",46.3],["2019-06",46.11],["2019-07",46.35],["2019-08",46.11],["2019-09",45.55],["2019-10",45.05],["2019-11",45.6],["2019-12",46.66],["2020-01",47.66],["2020-02",47.92],["2020-03",48.34],["2020-04",47.9],["2020-05",46.15],["2020-06",45.97],["2020-07",46.13],["2020-08",46.12],["2020-09",45.52],["2020-10",44.73],["2020-11",45.75],["2020-12",46.63],["2021-01",47.22],["2021-02",47.21],["2021-03",47.59],["2021-04",47.42],["2021-05",46.22],["2021-06",46.18],["2021-07",46.96],["2021-08",47.08],["2021-09",46.36],["2021-10",45.7],["2021-11",46.65],["2021-12",47.38],["2022-01",47.67],["2022-02",47.78],["2022-03",48.0],["2022-04",47.74],["2022-05",47.39],["2022-06",47.2],["2022-07",48.04],["2022-08",47.42],["2022-09",47.04],["2022-10",47.17],["2022-11",47.92],["2022-12",48.49],["2023-01",48.97],["2023-02",48.44],["2023-03",48.63],["2023-04",48.38],["2023-05",47.4],["2023-06",46.98],["2023-07",47.64],["2023-08",48.24],["2023-09",47.62],["2023-10",46.89],["2023-11",48.21],["2023-12",48.87],["2024-01",49.04],["2024-02",49.1],["2024-03",49.32],["2024-04",48.86],["2024-05",48.4],["2024-06",48.56],["2024-07",49.13],["2024-08",48.97],["2024-09",48.25],["2024-10",47.76],["2024-11",48.48],["2024-12",48.98],["2025-01",49.44],["2025-02",49.01],["2025-03",49.16],["2025-04",48.89],["2025-05",48.19],["2025-06",48.32],["2025-07",48.94],["2025-08",48.95],["2025-09",48.78],["2025-10",48.13],["2025-11",48.93],["2025-12",49.3]],"origen":"demo"},"geometry":{"type":"Point","coordinates":[-75.309,9.333]}},{"type":"Feature","properties":{"codigo":"POZ-MOR-02","nombre":"Sabaneta","municipio":"Morroa","profundidad_m":225,"cota_terreno_msnm":262,"nivel_estatico_m":43.07,"cota_piezometrica_msnm":218.93,"tendencia_m_ano":0.35,"descenso_acumulado_m":5.71,"minimo_m":35.99,"maximo_m":43.17,"promedio_m":39.72,"periodo":"2010-2025","n_registros":192,"serie":[["2010-01",37.36],["2010-02",37.14],["2010-03",37.65],["2010-04",37.39],["2010-05",36.61],["2010-06",36.41],["2010-07",36.5],["2010-08",36.08],["2010-09",35.99],["2010-10",36.0],["2010-11",36.31],["2010-12",37.48],["2011-01",37.88],["2011-02",38.23],["2011-03",38.08],["2011-04",38.0],["2011-05",37.02],["2011-06",36.4],["2011-07",37.41],["2011-08",37.08],["2011-09",37.01],["2011-10",36.86],["2011-11",37.7],["2011-12",37.88],["2012-01",38.14],["2012-02",38.99],["2012-03",39.04],["2012-04",39.07],["2012-05",37.48],["2012-06",37.15],["2012-07",37.53],["2012-08",37.14],["2012-09",36.33],["2012-10",36.55],["2012-11",37.77],["2012-12",38.11],["2013-01",38.98],["2013-02",39.44],["2013-03",39.65],["2013-04",38.29],["2013-05",37.57],["2013-06",36.97],["2013-07",37.11],["2013-08",37.21],["2013-09",37.07],["2013-10",37.24],["2013-11",38.24],["2013-12",38.28],["2014-01",38.95],["2014-02",39.24],["2014-03",39.47],["2014-04",38.94],["2014-05",38.41],["2014-06",38.08],["2014-07",38.44],["2014-08",38.28],["2014-09",37.52],["2014-10",37.52],["2014-11",38.29],["2014-12",39.23],["2015-01",39.54],["2015-02",39.73],["2015-03",40.32],["2015-04",39.89],["2015-05",38.83],["2015-06",38.2],["2015-07",39.17],["2015-08",38.9],["2015-09",37.96],["2015-10",38.15],["2015-11",38.44],["2015-12",39.06],["2016-01",39.19],["2016-02",39.64],["2016-03",40.07],["2016-04",39.97],["2016-05",38.77],["2016-06",38.56],["2016-07",38.59],["2016-08",38.5],["2016-09",38.04],["2016-10",37.93],["2016-11",38.15],["2016-12",39.38],["2017-01",39.65],["2017-02",39.92],["2017-03",40.23],["2017-04",40.29],["2017-05",39.17],["2017-06",39.04],["2017-07",38.99],["2017-08",38.83],["2017-09",38.97],["2017-10",38.42],["2017-11",39.05],["2017-12",39.76],["2018-01",40.39],["2018-02",40.65],["2018-03",40.75],["2018-04",40.45],["2018-05",39.73],["2018-06",39.71],["2018-07",40.36],["2018-08",40.47],["2018-09",39.74],["2018-10",39.97],["2018-11",40.77],["2018-12",41.33],["2019-01",41.38],["2019-02",40.99],["2019-03",40.58],["2019-04",40.0],["2019-05",39.29],["2019-06",39.42],["2019-07",39.68],["2019-08",39.76],["2019-09",39.48],["2019-10",39.57],["2019-11",40.08],["2019-12",41.08],["2020-01",41.34],["2020-02",41.48],["2020-03",41.93],["2020-04",41.36],["2020-05",40.46],["2020-06",40.17],["2020-07",40.59],["2020-08",40.22],["2020-09",39.52],["2020-10",38.99],["2020-11",39.48],["2020-12",40.35],["2021-01",41.36],["2021-02",41.48],["2021-03",41.28],["2021-04",41.31],["2021-05",40.46],["2021-06",40.61],["2021-07",41.23],["2021-08",41.63],["2021-09",41.14],["2021-10",40.89],["2021-11",40.73],["2021-12",41.31],["2022-01",41.66],["2022-02",41.85],["2022-03",42.44],["2022-04",42.01],["2022-05",41.17],["2022-06",41.42],["2022-07",41.6],["2022-08",41.23],["2022-09",40.88],["2022-10",40.92],["2022-11",41.75],["2022-12",42.28],["2023-01",42.02],["2023-02",42.08],["2023-03",42.67],["2023-04",42.3],["2023-05",41.52],["2023-06",41.4],["2023-07",41.94],["2023-08",41.47],["2023-09",41.01],["2023-10",40.87],["2023-11",41.02],["2023-12",42.3],["2024-01",42.73],["2024-02",42.98],["2024-03",43.17],["2024-04",42.97],["2024-05",41.55],["2024-06",41.29],["2024-07",41.36],["2024-08",41.57],["2024-09",41.66],["2024-10",41.46],["2024-11",41.85],["2024-12",42.33],["2025-01",42.44],["2025-02",42.75],["2025-03",43.04],["2025-04",42.28],["2025-05",41.9],["2025-06",41.77],["2025-07",42.5],["2025-08",42.38],["2025-09",42.04],["2025-10",41.74],["2025-11",42.09],["2025-12",43.07]],"origen":"demo"},"geometry":{"type":"Point","coordinates":[-75.33,9.362]}},{"type":"Feature","properties":{"codigo":"POZ-COR-01","nombre":"Corozal Centro","municipio":"Corozal","profundidad_m":280,"cota_terreno_msnm":172,"nivel_estatico_m":66.19,"cota_piezometrica_msnm":105.81,"tendencia_m_ano":0.74,"descenso_acumulado_m":10.86,"minimo_m":53.84,"maximo_m":66.5,"promedio_m":60.18,"periodo":"2010-2025","n_registros":192,"serie":[["2010-01",55.33],["2010-02",55.39],["2010-03",55.84],["2010-04",55.36],["2010-05",54.39],["2010-06",54.51],["2010-07",55.22],["2010-08",54.24],["2010-09",53.84],["2010-10",53.9],["2010-11",54.39],["2010-12",54.97],["2011-01",55.7],["2011-02",55.87],["2011-03",55.57],["2011-04",55.13],["2011-05",54.62],["2011-06",54.43],["2011-07",54.59],["2011-08",54.21],["2011-09",54.24],["2011-10",53.88],["2011-11",54.45],["2011-12",56.2],["2012-01",56.59],["2012-02",56.68],["2012-03",56.82],["2012-04",56.38],["2012-05",55.96],["2012-06",55.44],["2012-07",55.85],["2012-08",55.47],["2012-09",54.77],["2012-10",54.84],["2012-11",55.28],["2012-12",56.28],["2013-01",56.93],["2013-02",57.58],["2013-03",57.64],["2013-04",57.68],["2013-05",56.34],["2013-06",56.59],["2013-07",56.94],["2013-08",56.4],["2013-09",56.24],["2013-10",56.21],["2013-11",56.83],["2013-12",57.39],["2014-01",58.08],["2014-02",57.55],["2014-03",58.35],["2014-04",58.41],["2014-05",57.64],["2014-06",57.19],["2014-07",57.37],["2014-08",57.34],["2014-09",56.78],["2014-10",56.71],["2014-11",57.41],["2014-12",57.79],["2015-01",57.97],["2015-02",58.63],["2015-03",59.48],["2015-04",59.06],["2015-05",57.83],["2015-06",57.52],["2015-07",58.3],["2015-08",58.45],["2015-09",57.84],["2015-10",57.65],["2015-11",59.03],["2015-12",59.62],["2016-01",60.17],["2016-02",59.81],["2016-03",59.7],["2016-04",59.64],["2016-05",59.21],["2016-06",58.9],["2016-07",58.88],["2016-08",59.38],["2016-09",58.13],["2016-10",58.67],["2016-11",59.34],["2016-12",60.31],["2017-01",60.5],["2017-02",60.27],["2017-03",60.54],["2017-04",60.14],["2017-05",59.8],["2017-06",59.39],["2017-07",59.75],["2017-08",59.37],["2017-09",58.82],["2017-10",59.0],["2017-11",59.83],["2017-12",60.43],["2018-01",60.63],["2018-02",61.12],["2018-03",61.67],["2018-04",61.26],["2018-05",60.25],["2018-06",60.25],["2018-07",60.6],["2018-08",60.33],["2018-09",60.28],["2018-10",60.25],["2018-11",60.9],["2018-12",61.89],["2019-01",61.51],["2019-02",62.02],["2019-03",62.08],["2019-04",62.11],["2019-05",61.31],["2019-06",61.01],["2019-07",60.9],["2019-08",60.7],["2019-09",60.63],["2019-10",60.56],["2019-11",61.03],["2019-12",61.74],["2020-01",62.79],["2020-02",62.87],["2020-03",62.8],["2020-04",62.39],["2020-05",61.68],["2020-06",61.55],["2020-07",61.82],["2020-08",61.67],["2020-09",61.31],["2020-10",61.05],["2020-11",61.43],["2020-12",61.85],["2021-01",62.45],["2021-02",63.15],["2021-03",63.33],["2021-04",62.62],["2021-05",61.62],["2021-06",61.58],["2021-07",62.5],["2021-08",63.02],["2021-09",62.49],["2021-10",62.29],["2021-11",62.95],["2021-12",63.26],["2022-01",63.6],["2022-02",64.09],["2022-03",64.17],["2022-04",63.66],["2022-05",62.65],["2022-06",62.71],["2022-07",63.19],["2022-08",63.17],["2022-09",62.4],["2022-10",62.11],["2022-11",63.53],["2022-12",64.02],["2023-01",64.39],["2023-02",64.34],["2023-03",65.18],["2023-04",65.25],["2023-05",64.83],["2023-06",64.34],["2023-07",64.96],["2023-08",64.47],["2023-09",63.93],["2023-10",64.07],["2023-11",64.6],["2023-12",65.0],["2024-01",65.82],["2024-02",65.3],["2024-03",65.13],["2024-04",65.2],["2024-05",64.3],["2024-06",64.01],["2024-07",64.77],["2024-08",65.02],["2024-09",63.98],["2024-10",64.44],["2024-11",65.37],["2024-12",66.07],["2025-01",66.18],["2025-02",66.38],["2025-03",66.5],["2025-04",66.21],["2025-05",65.77],["2025-06",65.26],["2025-07",65.68],["2025-08",65.63],["2025-09",64.94],["2025-10",65.18],["2025-11",65.78],["2025-12",66.19]],"origen":"demo"},"geometry":{"type":"Point","coordinates":[-75.296,9.318]}},{"type":"Feature","properties":{"codigo":"POZ-COR-02","nombre":"Las Llanadas","municipio":"Corozal","profundidad_m":305,"cota_terreno_msnm":165,"nivel_estatico_m":70.79,"cota_piezometrica_msnm":94.21,"tendencia_m_ano":0.81,"descenso_acumulado_m":12.12,"minimo_m":57.19,"maximo_m":71.64,"promedio_m":64.01,"periodo":"2010-2025","n_registros":192,"serie":[["2010-01",58.67],["2010-02",58.19],["2010-03",58.87],["2010-04",58.52],["2010-05",57.19],["2010-06",57.25],["2010-07",57.78],["2010-08",57.72],["2010-09",57.73],["2010-10",58.11],["2010-11",58.26],["2010-12",59.45],["2011-01",59.68],["2011-02",59.55],["2011-03",59.36],["2011-04",58.53],["2011-05",58.03],["2011-06",58.65],["2011-07",59.1],["2011-08",58.93],["2011-09",58.35],["2011-10",58.14],["2011-11",58.94],["2011-12",59.83],["2012-01",60.34],["2012-02",59.8],["2012-03",59.43],["2012-04",59.48],["2012-05",59.08],["2012-06",58.51],["2012-07",58.74],["2012-08",58.61],["2012-09",58.09],["2012-10",57.82],["2012-11",58.51],["2012-12",59.61],["2013-01",60.36],["2013-02",60.48],["2013-03",60.66],["2013-04",60.8],["2013-05",60.14],["2013-06",59.59],["2013-07",60.44],["2013-08",60.1],["2013-09",59.2],["2013-10",59.35],["2013-11",60.36],["2013-12",61.3],["2014-01",61.23],["2014-02",61.94],["2014-03",62.2],["2014-04",61.96],["2014-05",61.26],["2014-06",60.76],["2014-07",61.55],["2014-08",61.37],["2014-09",60.83],["2014-10",60.13],["2014-11",60.62],["2014-12",61.26],["2015-01",61.73],["2015-02",62.14],["2015-03",62.14],["2015-04",62.39],["2015-05",61.81],["2015-06",61.31],["2015-07",61.49],["2015-08",61.79],["2015-09",61.4],["2015-10",61.23],["2015-11",61.7],["2015-12",61.94],["2016-01",62.42],["2016-02",62.76],["2016-03",63.56],["2016-04",62.89],["2016-05",61.97],["2016-06",61.77],["2016-07",62.07],["2016-08",62.14],["2016-09",61.67],["2016-10",62.09],["2016-11",62.67],["2016-12",63.6],["2017-01",63.97],["2017-02",64.03],["2017-03",64.4],["2017-04",64.29],["2017-05",63.09],["2017-06",64.03],["2017-07",64.08],["2017-08",64.09],["2017-09",63.3],["2017-10",63.76],["2017-11",64.27],["2017-12",64.79],["2018-01",65.0],["2018-02",64.8],["2018-03",65.4],["2018-04",65.0],["2018-05",63.98],["2018-06",64.02],["2018-07",64.39],["2018-08",64.05],["2018-09",63.82],["2018-10",63.34],["2018-11",64.36],["2018-12",65.12],["2019-01",65.76],["2019-02",66.09],["2019-03",66.45],["2019-04",66.05],["2019-05",65.14],["2019-06",64.69],["2019-07",64.87],["2019-08",64.83],["2019-09",64.27],["2019-10",64.5],["2019-11",64.82],["2019-12",65.66],["2020-01",66.24],["2020-02",66.58],["2020-03",66.68],["2020-04",66.6],["2020-05",65.66],["2020-06",65.26],["2020-07",65.35],["2020-08",66.15],["2020-09",65.84],["2020-10",65.83],["2020-11",66.27],["2020-12",67.1],["2021-01",67.62],["2021-02",67.54],["2021-03",67.77],["2021-04",67.07],["2021-05",66.67],["2021-06",66.28],["2021-07",66.67],["2021-08",66.53],["2021-09",65.8],["2021-10",65.95],["2021-11",66.61],["2021-12",67.6],["2022-01",68.2],["2022-02",68.61],["2022-03",68.58],["2022-04",68.13],["2022-05",67.76],["2022-06",67.38],["2022-07",68.44],["2022-08",67.84],["2022-09",67.25],["2022-10",67.25],["2022-11",67.94],["2022-12",68.46],["2023-01",68.7],["2023-02",68.98],["2023-03",69.46],["2023-04",68.99],["2023-05",68.49],["2023-06",68.18],["2023-07",68.7],["2023-08",68.29],["2023-09",67.74],["2023-10",67.32],["2023-11",67.78],["2023-12",68.83],["2024-01",69.04],["2024-02",68.42],["2024-03",68.56],["2024-04",68.94],["2024-05",68.83],["2024-06",68.62],["2024-07",68.68],["2024-08",68.58],["2024-09",68.71],["2024-10",68.8],["2024-11",69.26],["2024-12",69.8],["2025-01",69.98],["2025-02",71.0],["2025-03",71.64],["2025-04",71.4],["2025-05",70.38],["2025-06",70.41],["2025-07",70.53],["2025-08",70.25],["2025-09",69.23],["2025-10",69.62],["2025-11",70.25],["2025-12",70.79]],"origen":"demo"},"geometry":{"type":"Point","coordinates":[-75.278,9.293]}},{"type":"Feature","properties":{"codigo":"POZ-SAM-01","nombre":"Sampues Cabecera","municipio":"Sampues","profundidad_m":330,"cota_terreno_msnm":145,"nivel_estatico_m":79.49,"cota_piezometrica_msnm":65.51,"tendencia_m_ano":0.96,"descenso_acumulado_m":14.06,"minimo_m":64.17,"maximo_m":79.49,"promedio_m":71.92,"periodo":"2010-2025","n_registros":192,"serie":[["2010-01",65.43],["2010-02",65.55],["2010-03",65.64],["2010-04",65.37],["2010-05",64.45],["2010-06",64.69],["2010-07",65.08],["2010-08",64.8],["2010-09",64.17],["2010-10",64.17],["2010-11",64.61],["2010-12",65.61],["2011-01",65.65],["2011-02",66.14],["2011-03",66.36],["2011-04",66.14],["2011-05",65.74],["2011-06",65.51],["2011-07",65.58],["2011-08",65.64],["2011-09",65.94],["2011-10",65.81],["2011-11",66.64],["2011-12",67.03],["2012-01",67.52],["2012-02",67.6],["2012-03",67.84],["2012-04",67.76],["2012-05",66.54],["2012-06",66.48],["2012-07",66.38],["2012-08",66.43],["2012-09",66.11],["2012-10",66.54],["2012-11",67.53],["2012-12",67.48],["2013-01",67.54],["2013-02",67.81],["2013-03",67.97],["2013-04",68.17],["2013-05",66.96],["2013-06",67.59],["2013-07",67.78],["2013-08",67.86],["2013-09",67.78],["2013-10",67.37],["2013-11",68.3],["2013-12",68.57],["2014-01",68.45],["2014-02",68.56],["2014-03",68.86],["2014-04",68.49],["2014-05",68.57],["2014-06",67.85],["2014-07",68.72],["2014-08",68.07],["2014-09",67.64],["2014-10",67.77],["2014-11",67.96],["2014-12",69.16],["2015-01",69.56],["2015-02",69.8],["2015-03",70.43],["2015-04",70.59],["2015-05",69.6],["2015-06",68.57],["2015-07",68.92],["2015-08",68.68],["2015-09",68.21],["2015-10",68.18],["2015-11",69.11],["2015-12",69.66],["2016-01",70.23],["2016-02",70.36],["2016-03",70.51],["2016-04",70.38],["2016-05",69.84],["2016-06",69.51],["2016-07",70.02],["2016-08",70.22],["2016-09",69.4],["2016-10",69.48],["2016-11",69.92],["2016-12",70.8],["2017-01",71.58],["2017-02",71.54],["2017-03",72.03],["2017-04",71.65],["2017-05",71.01],["2017-06",71.14],["2017-07",71.62],["2017-08",71.06],["2017-09",71.14],["2017-10",70.66],["2017-11",70.68],["2017-12",71.26],["2018-01",71.72],["2018-02",72.82],["2018-03",72.67],["2018-04",72.39],["2018-05",72.0],["2018-06",71.6],["2018-07",72.17],["2018-08",72.04],["2018-09",71.58],["2018-10",71.73],["2018-11",72.59],["2018-12",73.76],["2019-01",73.85],["2019-02",74.45],["2019-03",74.28],["2019-04",73.84],["2019-05",73.11],["2019-06",73.06],["2019-07",73.39],["2019-08",73.65],["2019-09",73.31],["2019-10",72.93],["2019-11",73.55],["2019-12",74.09],["2020-01",74.68],["2020-02",75.17],["2020-03",75.01],["2020-04",74.77],["2020-05",73.67],["2020-06",73.57],["2020-07",74.07],["2020-08",74.66],["2020-09",74.36],["2020-10",74.55],["2020-11",75.35],["2020-12",75.6],["2021-01",76.29],["2021-02",75.95],["2021-03",75.74],["2021-04",75.44],["2021-05",74.92],["2021-06",75.2],["2021-07",75.21],["2021-08",75.58],["2021-09",75.29],["2021-10",75.47],["2021-11",75.67],["2021-12",76.62],["2022-01",76.79],["2022-02",76.76],["2022-03",77.3],["2022-04",77.57],["2022-05",75.92],["2022-06",76.0],["2022-07",76.21],["2022-08",76.01],["2022-09",75.62],["2022-10",75.54],["2022-11",76.2],["2022-12",76.78],["2023-01",77.09],["2023-02",77.35],["2023-03",77.61],["2023-04",77.52],["2023-05",77.11],["2023-06",76.42],["2023-07",77.01],["2023-08",77.21],["2023-09",76.12],["2023-10",75.71],["2023-11",76.14],["2023-12",77.26],["2024-01",77.39],["2024-02",77.91],["2024-03",78.34],["2024-04",78.11],["2024-05",77.72],["2024-06",77.84],["2024-07",77.71],["2024-08",77.37],["2024-09",77.62],["2024-10",77.57],["2024-11",78.63],["2024-12",79.2],["2025-01",79.39],["2025-02",79.36],["2025-03",79.4],["2025-04",79.31],["2025-05",78.25],["2025-06",78.57],["2025-07",78.58],["2025-08",78.31],["2025-09",77.57],["2025-10",77.04],["2025-11",78.01],["2025-12",79.49]],"origen":"demo"},"geometry":{"type":"Point","coordinates":[-75.379,9.185]}},{"type":"Feature","properties":{"codigo":"POZ-SAM-02","nombre":"Segovia","municipio":"Sampues","profundidad_m":315,"cota_terreno_msnm":152,"nivel_estatico_m":74.72,"cota_piezometrica_msnm":77.28,"tendencia_m_ano":0.88,"descenso_acumulado_m":13.49,"minimo_m":61.05,"maximo_m":75.12,"promedio_m":67.81,"periodo":"2010-2025","n_registros":192,"serie":[["2010-01",61.23],["2010-02",61.49],["2010-03",62.12],["2010-04",61.67],["2010-05",61.05],["2010-06",61.22],["2010-07",61.7],["2010-08",61.38],["2010-09",61.22],["2010-10",61.32],["2010-11",62.46],["2010-12",63.25],["2011-01",63.37],["2011-02",63.4],["2011-03",63.53],["2011-04",62.93],["2011-05",61.9],["2011-06",61.79],["2011-07",62.16],["2011-08",61.83],["2011-09",61.96],["2011-10",61.58],["2011-11",61.95],["2011-12",63.29],["2012-01",64.09],["2012-02",63.77],["2012-03",63.48],["2012-04",63.59],["2012-05",62.45],["2012-06",62.75],["2012-07",63.56],["2012-08",63.42],["2012-09",62.64],["2012-10",62.75],["2012-11",63.46],["2012-12",63.47],["2013-01",63.46],["2013-02",63.74],["2013-03",64.33],["2013-04",63.77],["2013-05",62.94],["2013-06",62.72],["2013-07",63.16],["2013-08",63.49],["2013-09",63.28],["2013-10",63.74],["2013-11",63.79],["2013-12",64.64],["2014-01",65.26],["2014-02",65.04],["2014-03",65.65],["2014-04",65.3],["2014-05",64.83],["2014-06",64.31],["2014-07",65.12],["2014-08",64.26],["2014-09",63.66],["2014-10",63.89],["2014-11",64.8],["2014-12",65.6],["2015-01",66.08],["2015-02",66.88],["2015-03",66.97],["2015-04",66.37],["2015-05",65.31],["2015-06",65.2],["2015-07",65.37],["2015-08",65.8],["2015-09",65.09],["2015-10",64.58],["2015-11",65.18],["2015-12",65.75],["2016-01",66.86],["2016-02",67.42],["2016-03",67.48],["2016-04",67.51],["2016-05",66.26],["2016-06",65.9],["2016-07",66.54],["2016-08",66.42],["2016-09",65.87],["2016-10",65.74],["2016-11",66.37],["2016-12",67.45],["2017-01",68.64],["2017-02",69.14],["2017-03",68.73],["2017-04",68.21],["2017-05",67.53],["2017-06",66.99],["2017-07",67.41],["2017-08",66.91],["2017-09",66.84],["2017-10",66.53],["2017-11",67.48],["2017-12",68.24],["2018-01",68.74],["2018-02",68.56],["2018-03",68.1],["2018-04",67.52],["2018-05",66.59],["2018-06",66.62],["2018-07",67.26],["2018-08",67.84],["2018-09",66.78],["2018-10",66.62],["2018-11",66.85],["2018-12",68.04],["2019-01",68.58],["2019-02",69.15],["2019-03",68.54],["2019-04",68.73],["2019-05",68.03],["2019-06",68.01],["2019-07",69.07],["2019-08",69.31],["2019-09",69.07],["2019-10",69.1],["2019-11",69.13],["2019-12",69.93],["2020-01",70.28],["2020-02",70.32],["2020-03",70.49],["2020-04",70.24],["2020-05",69.37],["2020-06",69.82],["2020-07",70.09],["2020-08",69.93],["2020-09",69.45],["2020-10",69.72],["2020-11",70.15],["2020-12",70.43],["2021-01",70.76],["2021-02",71.15],["2021-03",71.4],["2021-04",71.04],["2021-05",70.6],["2021-06",70.55],["2021-07",70.37],["2021-08",70.19],["2021-09",70.06],["2021-10",70.16],["2021-11",71.23],["2021-12",72.3],["2022-01",72.99],["2022-02",72.6],["2022-03",72.56],["2022-04",72.13],["2022-05",71.29],["2022-06",71.41],["2022-07",72.01],["2022-08",71.64],["2022-09",71.8],["2022-10",71.62],["2022-11",71.78],["2022-12",71.83],["2023-01",72.49],["2023-02",72.13],["2023-03",72.91],["2023-04",71.82],["2023-05",71.45],["2023-06",71.14],["2023-07",72.22],["2023-08",71.87],["2023-09",71.95],["2023-10",71.57],["2023-11",72.29],["2023-12",73.26],["2024-01",74.06],["2024-02",74.9],["2024-03",74.69],["2024-04",73.95],["2024-05",73.21],["2024-06",73.09],["2024-07",73.63],["2024-08",73.25],["2024-09",72.94],["2024-10",72.64],["2024-11",72.88],["2024-12",73.55],["2025-01",74.16],["2025-02",74.82],["2025-03",75.12],["2025-04",74.81],["2025-05",74.21],["2025-06",73.81],["2025-07",73.98],["2025-08",74.09],["2025-09",73.96],["2025-10",73.53],["2025-11",74.28],["2025-12",74.72]],"origen":"demo"},"geometry":{"type":"Point","coordinates":[-75.402,9.208]}},{"type":"Feature","properties":{"codigo":"POZ-LPA-01","nombre":"Los Palmitos Cabecera","municipio":"Los Palmitos","profundidad_m":265,"cota_terreno_msnm":188,"nivel_estatico_m":57.44,"cota_piezometrica_msnm":130.56,"tendencia_m_ano":0.61,"descenso_acumulado_m":8.97,"minimo_m":46.71,"maximo_m":58.56,"promedio_m":52.53,"periodo":"2010-2025","n_registros":192,"serie":[["2010-01",48.47],["2010-02",48.25],["2010-03",48.13],["2010-04",47.93],["2010-05",47.49],["2010-06",47.44],["2010-07",47.89],["2010-08",48.01],["2010-09",47.26],["2010-10",46.71],["2010-11",47.67],["2010-12",48.32],["2011-01",49.14],["2011-02",49.93],["2011-03",50.95],["2011-04",50.08],["2011-05",48.57],["2011-06",48.85],["2011-07",49.23],["2011-08",48.6],["2011-09",47.93],["2011-10",47.81],["2011-11",47.86],["2011-12",48.63],["2012-01",48.85],["2012-02",49.08],["2012-03",49.25],["2012-04",49.23],["2012-05",48.11],["2012-06",48.13],["2012-07",48.53],["2012-08",48.7],["2012-09",48.47],["2012-10",48.31],["2012-11",48.79],["2012-12",49.59],["2013-01",49.91],["2013-02",50.59],["2013-03",50.6],["2013-04",50.07],["2013-05",49.11],["2013-06",48.99],["2013-07",49.77],["2013-08",49.27],["2013-09",48.53],["2013-10",48.66],["2013-11",49.56],["2013-12",50.27],["2014-01",50.54],["2014-02",50.67],["2014-03",50.43],["2014-04",50.2],["2014-05",50.02],["2014-06",50.35],["2014-07",50.39],["2014-08",50.28],["2014-09",49.85],["2014-10",49.88],["2014-11",50.49],["2014-12",50.9],["2015-01",51.18],["2015-02",51.59],["2015-03",51.49],["2015-04",51.07],["2015-05",49.97],["2015-06",49.74],["2015-07",49.73],["2015-08",49.64],["2015-09",49.61],["2015-10",49.15],["2015-11",49.96],["2015-12",50.95],["2016-01",51.8],["2016-02",52.25],["2016-03",52.19],["2016-04",51.89],["2016-05",51.49],["2016-06",51.32],["2016-07",51.4],["2016-08",51.18],["2016-09",50.36],["2016-10",50.62],["2016-11",51.49],["2016-12",52.39],["2017-01",52.54],["2017-02",52.47],["2017-03",52.62],["2017-04",52.63],["2017-05",51.27],["2017-06",51.36],["2017-07",51.64],["2017-08",51.7],["2017-09",51.1],["2017-10",50.61],["2017-11",51.26],["2017-12",52.2],["2018-01",53.27],["2018-02",53.23],["2018-03",53.64],["2018-04",53.76],["2018-05",52.76],["2018-06",52.12],["2018-07",53.25],["2018-08",52.81],["2018-09",51.96],["2018-10",51.47],["2018-11",52.13],["2018-12",52.71],["2019-01",53.62],["2019-02",53.72],["2019-03",54.32],["2019-04",54.29],["2019-05",53.69],["2019-06",53.12],["2019-07",53.31],["2019-08",52.79],["2019-09",52.54],["2019-10",52.47],["2019-11",52.83],["2019-12",53.95],["2020-01",55.0],["2020-02",55.27],["2020-03",55.48],["2020-04",55.57],["2020-05",54.21],["2020-06",54.3],["2020-07",54.83],["2020-08",55.19],["2020-09",54.02],["2020-10",53.76],["2020-11",53.96],["2020-12",54.81],["2021-01",55.02],["2021-02",55.39],["2021-03",55.95],["2021-04",55.57],["2021-05",54.6],["2021-06",54.7],["2021-07",54.99],["2021-08",54.44],["2021-09",54.47],["2021-10",54.59],["2021-11",54.69],["2021-12",56.12],["2022-01",56.65],["2022-02",56.4],["2022-03",56.77],["2022-04",55.89],["2022-05",54.98],["2022-06",55.07],["2022-07",55.47],["2022-08",55.1],["2022-09",54.86],["2022-10",55.17],["2022-11",55.72],["2022-12",56.07],["2023-01",56.83],["2023-02",56.9],["2023-03",57.32],["2023-04",57.05],["2023-05",55.72],["2023-06",55.65],["2023-07",55.54],["2023-08",55.08],["2023-09",54.61],["2023-10",55.13],["2023-11",56.2],["2023-12",56.81],["2024-01",57.37],["2024-02",57.47],["2024-03",57.5],["2024-04",56.65],["2024-05",55.73],["2024-06",56.12],["2024-07",55.77],["2024-08",55.4],["2024-09",55.32],["2024-10",55.43],["2024-11",56.18],["2024-12",56.88],["2025-01",58.08],["2025-02",58.09],["2025-03",58.56],["2025-04",58.16],["2025-05",56.91],["2025-06",56.64],["2025-07",57.31],["2025-08",57.1],["2025-09",57.16],["2025-10",56.72],["2025-11",56.89],["2025-12",57.44]],"origen":"demo"},"geometry":{"type":"Point","coordinates":[-75.274,9.378]}},{"type":"Feature","properties":{"codigo":"POZ-LPA-02","nombre":"Sabanas de Pedro","municipio":"Los Palmitos","profundidad_m":250,"cota_terreno_msnm":201,"nivel_estatico_m":51.52,"cota_piezometrica_msnm":149.48,"tendencia_m_ano":0.52,"descenso_acumulado_m":7.63,"minimo_m":42.81,"maximo_m":52.27,"promedio_m":47.5,"periodo":"2010-2025","n_registros":192,"serie":[["2010-01",43.89],["2010-02",44.45],["2010-03",44.79],["2010-04",44.46],["2010-05",43.34],["2010-06",42.89],["2010-07",43.48],["2010-08",43.62],["2010-09",42.81],["2010-10",43.19],["2010-11",43.83],["2010-12",44.67],["2011-01",45.25],["2011-02",45.41],["2011-03",45.33],["2011-04",44.98],["2011-05",44.29],["2011-06",44.43],["2011-07",44.49],["2011-08",44.32],["2011-09",44.2],["2011-10",44.45],["2011-11",44.83],["2011-12",45.36],["2012-01",45.53],["2012-02",45.32],["2012-03",44.84],["2012-04",44.7],["2012-05",43.64],["2012-06",43.25],["2012-07",43.53],["2012-08",43.83],["2012-09",43.63],["2012-10",43.56],["2012-11",45.01],["2012-12",45.77],["2013-01",45.98],["2013-02",46.04],["2013-03",45.96],["2013-04",45.71],["2013-05",44.93],["2013-06",45.11],["2013-07",44.68],["2013-08",44.39],["2013-09",43.77],["2013-10",44.07],["2013-11",44.09],["2013-12",44.63],["2014-01",44.87],["2014-02",45.14],["2014-03",45.85],["2014-04",45.52],["2014-05",44.96],["2014-06",44.98],["2014-07",45.48],["2014-08",45.4],["2014-09",44.98],["2014-10",44.8],["2014-11",45.46],["2014-12",46.56],["2015-01",46.97],["2015-02",46.7],["2015-03",46.99],["2015-04",46.55],["2015-05",46.49],["2015-06",46.53],["2015-07",45.76],["2015-08",45.02],["2015-09",44.96],["2015-10",45.26],["2015-11",45.49],["2015-12",45.98],["2016-01",46.58],["2016-02",46.74],["2016-03",47.08],["2016-04",47.11],["2016-05",45.83],["2016-06",46.29],["2016-07",47.19],["2016-08",47.1],["2016-09",45.97],["2016-10",45.79],["2016-11",46.79],["2016-12",47.73],["2017-01",47.96],["2017-02",48.07],["2017-03",48.31],["2017-04",48.31],["2017-05",47.04],["2017-06",46.74],["2017-07",47.1],["2017-08",46.6],["2017-09",46.76],["2017-10",46.4],["2017-11",47.36],["2017-12",48.17],["2018-01",48.25],["2018-02",48.16],["2018-03",48.48],["2018-04",48.09],["2018-05",47.58],["2018-06",47.87],["2018-07",49.02],["2018-08",48.46],["2018-09",47.84],["2018-10",47.67],["2018-11",47.86],["2018-12",48.29],["2019-01",48.77],["2019-02",48.71],["2019-03",49.08],["2019-04",49.49],["2019-05",48.21],["2019-06",47.95],["2019-07",48.35],["2019-08",48.17],["2019-09",48.08],["2019-10",48.09],["2019-11",48.72],["2019-12",48.78],["2020-01",49.41],["2020-02",49.33],["2020-03",49.3],["2020-04",49.03],["2020-05",48.67],["2020-06",48.49],["2020-07",47.97],["2020-08",48.08],["2020-09",47.93],["2020-10",47.29],["2020-11",48.63],["2020-12",49.1],["2021-01",49.49],["2021-02",49.97],["2021-03",50.13],["2021-04",49.74],["2021-05",49.22],["2021-06",49.19],["2021-07",49.27],["2021-08",49.05],["2021-09",48.64],["2021-10",48.78],["2021-11",49.56],["2021-12",50.03],["2022-01",50.79],["2022-02",50.38],["2022-03",50.14],["2022-04",50.15],["2022-05",48.99],["2022-06",48.96],["2022-07",49.39],["2022-08",49.26],["2022-09",49.04],["2022-10",48.69],["2022-11",49.19],["2022-12",49.98],["2023-01",50.63],["2023-02",50.85],["2023-03",50.53],["2023-04",50.61],["2023-05",49.76],["2023-06",49.7],["2023-07",49.73],["2023-08",49.97],["2023-09",49.37],["2023-10",49.6],["2023-11",50.25],["2023-12",50.98],["2024-01",51.38],["2024-02",51.71],["2024-03",51.4],["2024-04",50.74],["2024-05",50.02],["2024-06",50.4],["2024-07",50.83],["2024-08",50.45],["2024-09",49.7],["2024-10",49.5],["2024-11",50.81],["2024-12",51.3],["2025-01",51.51],["2025-02",51.85],["2025-03",51.92],["2025-04",52.27],["2025-05",51.35],["2025-06",51.45],["2025-07",51.79],["2025-08",51.45],["2025-09",50.97],["2025-10",50.49],["2025-11",50.85],["2025-12",51.52]],"origen":"demo"},"geometry":{"type":"Point","coordinates":[-75.29,9.408]}},{"type":"Feature","properties":{"codigo":"POZ-OVE-01","nombre":"Ovejas Cabecera","municipio":"Ovejas","profundidad_m":210,"cota_terreno_msnm":268,"nivel_estatico_m":38.47,"cota_piezometrica_msnm":229.53,"tendencia_m_ano":0.29,"descenso_acumulado_m":4.17,"minimo_m":32.48,"maximo_m":38.87,"promedio_m":35.7,"periodo":"2010-2025","n_registros":192,"serie":[["2010-01",34.3],["2010-02",34.48],["2010-03",34.71],["2010-04",34.4],["2010-05",33.28],["2010-06",32.8],["2010-07",33.6],["2010-08",33.32],["2010-09",33.14],["2010-10",32.48],["2010-11",33.13],["2010-12",33.23],["2011-01",33.73],["2011-02",33.95],["2011-03",34.57],["2011-04",34.59],["2011-05",33.86],["2011-06",33.4],["2011-07",33.85],["2011-08",33.46],["2011-09",33.31],["2011-10",33.06],["2011-11",34.38],["2011-12",34.49],["2012-01",35.28],["2012-02",35.57],["2012-03",35.27],["2012-04",35.09],["2012-05",34.04],["2012-06",33.8],["2012-07",34.45],["2012-08",34.32],["2012-09",33.55],["2012-10",32.92],["2012-11",33.71],["2012-12",34.4],["2013-01",35.07],["2013-02",35.62],["2013-03",35.22],["2013-04",35.26],["2013-05",33.94],["2013-06",33.99],["2013-07",34.48],["2013-08",34.18],["2013-09",33.12],["2013-10",33.17],["2013-11",34.34],["2013-12",34.76],["2014-01",35.5],["2014-02",35.35],["2014-03",35.33],["2014-04",35.3],["2014-05",34.41],["2014-06",34.38],["2014-07",34.64],["2014-08",34.7],["2014-09",34.12],["2014-10",33.9],["2014-11",35.14],["2014-12",36.23],["2015-01",36.42],["2015-02",35.99],["2015-03",36.3],["2015-04",35.46],["2015-05",34.87],["2015-06",34.76],["2015-07",35.32],["2015-08",35.75],["2015-09",34.93],["2015-10",34.37],["2015-11",35.26],["2015-12",35.77],["2016-01",36.08],["2016-02",36.1],["2016-03",36.01],["2016-04",36.59],["2016-05",35.97],["2016-06",35.6],["2016-07",35.3],["2016-08",34.9],["2016-09",34.88],["2016-10",34.0],["2016-11",33.99],["2016-12",34.86],["2017-01",35.11],["2017-02",35.73],["2017-03",35.62],["2017-04",35.6],["2017-05",34.58],["2017-06",34.9],["2017-07",35.0],["2017-08",34.62],["2017-09",34.23],["2017-10",34.22],["2017-11",35.11],["2017-12",35.86],["2018-01",36.25],["2018-02",36.49],["2018-03",36.71],["2018-04",36.18],["2018-05",35.48],["2018-06",35.46],["2018-07",35.8],["2018-08",35.94],["2018-09",35.1],["2018-10",35.51],["2018-11",35.88],["2018-12",35.99],["2019-01",36.57],["2019-02",36.51],["2019-03",36.95],["2019-04",36.82],["2019-05",36.22],["2019-06",35.64],["2019-07",35.9],["2019-08",36.26],["2019-09",35.7],["2019-10",35.27],["2019-11",35.23],["2019-12",36.02],["2020-01",36.59],["2020-02",37.11],["2020-03",36.99],["2020-04",36.98],["2020-05",35.67],["2020-06",36.0],["2020-07",35.94],["2020-08",35.57],["2020-09",35.68],["2020-10",35.42],["2020-11",36.12],["2020-12",37.4],["2021-01",37.27],["2021-02",37.59],["2021-03",37.23],["2021-04",36.66],["2021-05",36.22],["2021-06",35.54],["2021-07",35.98],["2021-08",35.97],["2021-09",35.9],["2021-10",35.45],["2021-11",36.09],["2021-12",36.92],["2022-01",37.03],["2022-02",37.5],["2022-03",38.07],["2022-04",37.6],["2022-05",36.47],["2022-06",36.59],["2022-07",36.62],["2022-08",36.13],["2022-09",36.37],["2022-10",36.0],["2022-11",37.15],["2022-12",38.0],["2023-01",37.93],["2023-02",38.28],["2023-03",38.2],["2023-04",37.98],["2023-05",37.64],["2023-06",37.09],["2023-07",37.83],["2023-08",36.5],["2023-09",36.31],["2023-10",36.74],["2023-11",37.41],["2023-12",38.52],["2024-01",38.85],["2024-02",38.66],["2024-03",38.87],["2024-04",38.43],["2024-05",37.08],["2024-06",36.85],["2024-07",37.03],["2024-08",36.59],["2024-09",36.44],["2024-10",35.66],["2024-11",36.41],["2024-12",37.21],["2025-01",37.76],["2025-02",37.89],["2025-03",37.9],["2025-04",38.21],["2025-05",37.68],["2025-06",37.43],["2025-07",37.55],["2025-08",37.67],["2025-09",37.36],["2025-10",36.98],["2025-11",37.97],["2025-12",38.47]],"origen":"demo"},"geometry":{"type":"Point","coordinates":[-75.23,9.527]}},{"type":"Feature","properties":{"codigo":"POZ-OVE-02","nombre":"Canutal","municipio":"Ovejas","profundidad_m":235,"cota_terreno_msnm":241,"nivel_estatico_m":45.76,"cota_piezometrica_msnm":195.24,"tendencia_m_ano":0.37,"descenso_acumulado_m":5.99,"minimo_m":37.73,"maximo_m":45.76,"promedio_m":41.7,"periodo":"2010-2025","n_registros":192,"serie":[["2010-01",39.77],["2010-02",39.77],["2010-03",39.68],["2010-04",39.45],["2010-05",38.1],["2010-06",37.73],["2010-07",38.19],["2010-08",38.24],["2010-09",38.2],["2010-10",37.93],["2010-11",38.43],["2010-12",38.83],["2011-01",39.57],["2011-02",40.16],["2011-03",40.25],["2011-04",39.92],["2011-05",38.73],["2011-06",38.53],["2011-07",38.83],["2011-08",39.01],["2011-09",38.68],["2011-10",38.34],["2011-11",39.01],["2011-12",39.89],["2012-01",40.05],["2012-02",40.08],["2012-03",40.37],["2012-04",40.17],["2012-05",39.2],["2012-06",38.84],["2012-07",39.39],["2012-08",39.31],["2012-09",39.08],["2012-10",38.72],["2012-11",39.65],["2012-12",40.42],["2013-01",40.57],["2013-02",40.4],["2013-03",40.66],["2013-04",40.77],["2013-05",39.82],["2013-06",39.73],["2013-07",40.45],["2013-08",40.52],["2013-09",40.38],["2013-10",39.59],["2013-11",40.47],["2013-12",41.24],["2014-01",41.97],["2014-02",42.07],["2014-03",42.3],["2014-04",41.57],["2014-05",40.88],["2014-06",40.49],["2014-07",41.25],["2014-08",41.1],["2014-09",40.02],["2014-10",40.4],["2014-11",40.62],["2014-12",41.1],["2015-01",41.81],["2015-02",41.85],["2015-03",41.1],["2015-04",40.45],["2015-05",39.36],["2015-06",39.09],["2015-07",39.72],["2015-08",39.4],["2015-09",39.48],["2015-10",39.41],["2015-11",40.17],["2015-12",40.91],["2016-01",41.67],["2016-02",42.15],["2016-03",42.07],["2016-04",41.44],["2016-05",40.88],["2016-06",40.51],["2016-07",41.07],["2016-08",41.01],["2016-09",40.28],["2016-10",40.52],["2016-11",40.98],["2016-12",41.85],["2017-01",42.88],["2017-02",42.94],["2017-03",42.63],["2017-04",41.95],["2017-05",41.08],["2017-06",41.36],["2017-07",41.29],["2017-08",40.64],["2017-09",39.97],["2017-10",39.89],["2017-11",40.88],["2017-12",41.5],["2018-01",41.93],["2018-02",42.28],["2018-03",42.52],["2018-04",42.15],["2018-05",41.07],["2018-06",40.72],["2018-07",41.07],["2018-08",41.66],["2018-09",41.6],["2018-10",41.08],["2018-11",41.7],["2018-12",42.18],["2019-01",42.53],["2019-02",43.18],["2019-03",43.15],["2019-04",42.72],["2019-05",42.23],["2019-06",42.65],["2019-07",41.94],["2019-08",41.74],["2019-09",41.38],["2019-10",40.98],["2019-11",42.12],["2019-12",42.69],["2020-01",42.47],["2020-02",42.52],["2020-03",43.35],["2020-04",43.26],["2020-05",42.57],["2020-06",42.17],["2020-07",42.41],["2020-08",42.33],["2020-09",41.98],["2020-10",41.58],["2020-11",42.65],["2020-12",43.48],["2021-01",44.07],["2021-02",43.84],["2021-03",43.81],["2021-04",44.08],["2021-05",43.31],["2021-06",43.34],["2021-07",43.58],["2021-08",42.99],["2021-09",42.54],["2021-10",41.98],["2021-11",43.5],["2021-12",44.18],["2022-01",44.28],["2022-02",43.88],["2022-03",43.55],["2022-04",43.72],["2022-05",43.1],["2022-06",42.22],["2022-07",42.97],["2022-08",43.03],["2022-09",42.59],["2022-10",42.09],["2022-11",42.84],["2022-12",43.77],["2023-01",44.09],["2023-02",44.35],["2023-03",44.09],["2023-04",43.23],["2023-05",42.66],["2023-06",42.97],["2023-07",43.37],["2023-08",43.16],["2023-09",42.95],["2023-10",42.61],["2023-11",43.3],["2023-12",44.1],["2024-01",44.57],["2024-02",44.67],["2024-03",45.13],["2024-04",44.78],["2024-05",44.58],["2024-06",43.95],["2024-07",44.19],["2024-08",43.9],["2024-09",43.18],["2024-10",43.3],["2024-11",43.41],["2024-12",44.2],["2025-01",44.08],["2025-02",44.34],["2025-03",45.31],["2025-04",45.25],["2025-05",44.59],["2025-06",44.33],["2025-07",44.38],["2025-08",44.37],["2025-09",44.28],["2025-10",44.15],["2025-11",44.75],["2025-12",45.76]],"origen":"demo"},"geometry":{"type":"Point","coordinates":[-75.205,9.493]}},{"type":"Feature","properties":{"codigo":"POZ-OVE-03","nombre":"Don Gabriel","municipio":"Ovejas","profundidad_m":220,"cota_terreno_msnm":255,"nivel_estatico_m":40.36,"cota_piezometrica_msnm":214.64,"tendencia_m_ano":0.31,"descenso_acumulado_m":4.73,"minimo_m":34.44,"maximo_m":40.92,"promedio_m":37.5,"periodo":"2010-2025","n_registros":192,"serie":[["2010-01",35.63],["2010-02",35.9],["2010-03",36.39],["2010-04",35.76],["2010-05",34.67],["2010-06",34.76],["2010-07",34.92],["2010-08",34.77],["2010-09",34.54],["2010-10",34.44],["2010-11",35.05],["2010-12",35.16],["2011-01",35.58],["2011-02",35.73],["2011-03",36.13],["2011-04",36.48],["2011-05",36.16],["2011-06",36.21],["2011-07",36.19],["2011-08",35.72],["2011-09",34.91],["2011-10",34.55],["2011-11",34.77],["2011-12",35.72],["2012-01",36.22],["2012-02",36.43],["2012-03",36.39],["2012-04",36.17],["2012-05",35.29],["2012-06",34.8],["2012-07",35.15],["2012-08",34.56],["2012-09",34.66],["2012-10",34.46],["2012-11",35.02],["2012-12",35.75],["2013-01",36.83],["2013-02",37.73],["2013-03",37.84],["2013-04",37.66],["2013-05",36.28],["2013-06",36.08],["2013-07",36.6],["2013-08",36.59],["2013-09",36.32],["2013-10",36.21],["2013-11",36.69],["2013-12",36.97],["2014-01",37.4],["2014-02",37.47],["2014-03",37.45],["2014-04",37.21],["2014-05",36.22],["2014-06",36.19],["2014-07",36.01],["2014-08",35.98],["2014-09",35.68],["2014-10",35.2],["2014-11",35.86],["2014-12",36.75],["2015-01",37.36],["2015-02",37.52],["2015-03",37.66],["2015-04",36.81],["2015-05",35.78],["2015-06",35.65],["2015-07",36.4],["2015-08",36.64],["2015-09",36.49],["2015-10",36.05],["2015-11",36.74],["2015-12",37.6],["2016-01",37.65],["2016-02",37.7],["2016-03",38.18],["2016-04",37.73],["2016-05",36.0],["2016-06",36.02],["2016-07",36.5],["2016-08",36.63],["2016-09",36.02],["2016-10",36.48],["2016-11",37.25],["2016-12",38.28],["2017-01",38.32],["2017-02",38.35],["2017-03",37.84],["2017-04",37.4],["2017-05",36.24],["2017-06",36.71],["2017-07",37.1],["2017-08",36.67],["2017-09",36.34],["2017-10",35.94],["2017-11",36.76],["2017-12",38.11],["2018-01",38.06],["2018-02",38.13],["2018-03",38.72],["2018-04",38.35],["2018-05",37.67],["2018-06",37.19],["2018-07",37.4],["2018-08",37.2],["2018-09",37.25],["2018-10",37.24],["2018-11",38.27],["2018-12",38.91],["2019-01",39.16],["2019-02",39.61],["2019-03",39.37],["2019-04",38.79],["2019-05",37.97],["2019-06",37.74],["2019-07",38.49],["2019-08",38.14],["2019-09",37.53],["2019-10",37.24],["2019-11",37.75],["2019-12",38.15],["2020-01",38.94],["2020-02",38.85],["2020-03",38.92],["2020-04",39.22],["2020-05",37.73],["2020-06",37.72],["2020-07",37.89],["2020-08",37.75],["2020-09",37.44],["2020-10",37.14],["2020-11",38.19],["2020-12",38.67],["2021-01",38.77],["2021-02",38.59],["2021-03",38.84],["2021-04",38.42],["2021-05",37.98],["2021-06",37.72],["2021-07",37.44],["2021-08",37.93],["2021-09",37.53],["2021-10",37.35],["2021-11",38.45],["2021-12",38.84],["2022-01",39.41],["2022-02",39.78],["2022-03",39.67],["2022-04",39.38],["2022-05",38.89],["2022-06",38.52],["2022-07",38.54],["2022-08",38.3],["2022-09",37.74],["2022-10",37.94],["2022-11",38.46],["2022-12",39.52],["2023-01",40.4],["2023-02",40.64],["2023-03",40.06],["2023-04",39.62],["2023-05",39.17],["2023-06",38.13],["2023-07",38.6],["2023-08",38.41],["2023-09",38.16],["2023-10",38.12],["2023-11",38.36],["2023-12",39.22],["2024-01",40.08],["2024-02",40.03],["2024-03",40.39],["2024-04",39.72],["2024-05",37.98],["2024-06",38.18],["2024-07",38.25],["2024-08",38.91],["2024-09",38.81],["2024-10",39.01],["2024-11",39.32],["2024-12",40.3],["2025-01",40.79],["2025-02",40.68],["2025-03",40.92],["2025-04",40.87],["2025-05",39.55],["2025-06",39.43],["2025-07",39.56],["2025-08",38.8],["2025-09",39.39],["2025-10",38.91],["2025-11",39.33],["2025-12",40.36]],"origen":"demo"},"geometry":{"type":"Point","coordinates":[-75.248,9.462]}},{"type":"Feature","properties":{"codigo":"POZ-SJB-01","nombre":"San Juan de Betulia","municipio":"San Juan de Betulia","profundidad_m":290,"cota_terreno_msnm":158,"nivel_estatico_m":64.67,"cota_piezometrica_msnm":93.33,"tendencia_m_ano":0.69,"descenso_acumulado_m":11.03,"minimo_m":52.21,"maximo_m":64.67,"promedio_m":58.3,"periodo":"2010-2025","n_registros":192,"serie":[["2010-01",53.64],["2010-02",53.97],["2010-03",54.23],["2010-04",54.39],["2010-05",53.1],["2010-06",52.78],["2010-07",52.94],["2010-08",53.33],["2010-09",52.21],["2010-10",52.84],["2010-11",54.01],["2010-12",54.49],["2011-01",54.46],["2011-02",54.94],["2011-03",55.01],["2011-04",54.74],["2011-05",53.91],["2011-06",53.5],["2011-07",53.9],["2011-08",53.81],["2011-09",53.25],["2011-10",53.48],["2011-11",54.17],["2011-12",54.27],["2012-01",54.8],["2012-02",55.19],["2012-03",55.03],["2012-04",54.81],["2012-05",54.29],["2012-06",53.65],["2012-07",54.01],["2012-08",54.11],["2012-09",53.8],["2012-10",53.73],["2012-11",54.78],["2012-12",55.4],["2013-01",55.51],["2013-02",55.79],["2013-03",56.4],["2013-04",55.7],["2013-05",54.94],["2013-06",54.78],["2013-07",54.54],["2013-08",54.43],["2013-09",53.84],["2013-10",53.78],["2013-11",54.45],["2013-12",55.94],["2014-01",55.88],["2014-02",55.93],["2014-03",56.61],["2014-04",56.66],["2014-05",55.4],["2014-06",55.52],["2014-07",55.52],["2014-08",55.94],["2014-09",55.39],["2014-10",55.34],["2014-11",56.42],["2014-12",56.96],["2015-01",56.74],["2015-02",56.72],["2015-03",56.75],["2015-04",56.93],["2015-05",55.73],["2015-06",55.69],["2015-07",56.38],["2015-08",56.5],["2015-09",56.22],["2015-10",55.81],["2015-11",56.1],["2015-12",57.18],["2016-01",57.18],["2016-02",57.56],["2016-03",57.82],["2016-04",57.69],["2016-05",56.69],["2016-06",56.2],["2016-07",56.32],["2016-08",56.55],["2016-09",56.53],["2016-10",56.91],["2016-11",57.53],["2016-12",57.88],["2017-01",58.38],["2017-02",58.31],["2017-03",58.62],["2017-04",58.47],["2017-05",57.57],["2017-06",57.63],["2017-07",57.57],["2017-08",57.34],["2017-09",56.91],["2017-10",56.52],["2017-11",58.07],["2017-12",58.4],["2018-01",59.5],["2018-02",59.9],["2018-03",60.15],["2018-04",59.64],["2018-05",58.27],["2018-06",58.0],["2018-07",58.67],["2018-08",58.46],["2018-09",58.67],["2018-10",58.58],["2018-11",59.33],["2018-12",59.53],["2019-01",59.52],["2019-02",60.07],["2019-03",60.4],["2019-04",59.85],["2019-05",58.91],["2019-06",58.87],["2019-07",59.02],["2019-08",59.1],["2019-09",58.61],["2019-10",58.95],["2019-11",60.13],["2019-12",60.75],["2020-01",60.88],["2020-02",61.13],["2020-03",61.79],["2020-04",61.33],["2020-05",59.96],["2020-06",59.68],["2020-07",59.88],["2020-08",60.21],["2020-09",59.47],["2020-10",59.19],["2020-11",59.67],["2020-12",60.3],["2021-01",60.86],["2021-02",60.8],["2021-03",60.86],["2021-04",60.76],["2021-05",60.62],["2021-06",60.5],["2021-07",60.67],["2021-08",60.11],["2021-09",60.05],["2021-10",60.34],["2021-11",60.56],["2021-12",61.15],["2022-01",61.77],["2022-02",62.2],["2022-03",62.39],["2022-04",62.38],["2022-05",61.58],["2022-06",61.47],["2022-07",61.52],["2022-08",61.03],["2022-09",60.09],["2022-10",60.15],["2022-11",60.65],["2022-12",61.65],["2023-01",62.42],["2023-02",62.44],["2023-03",62.77],["2023-04",62.26],["2023-05",61.25],["2023-06",61.13],["2023-07",61.7],["2023-08",61.89],["2023-09",60.66],["2023-10",60.95],["2023-11",61.73],["2023-12",62.27],["2024-01",62.67],["2024-02",63.2],["2024-03",63.29],["2024-04",62.8],["2024-05",61.84],["2024-06",61.77],["2024-07",62.19],["2024-08",62.27],["2024-09",61.21],["2024-10",61.6],["2024-11",62.74],["2024-12",63.35],["2025-01",63.49],["2025-02",64.0],["2025-03",64.21],["2025-04",63.72],["2025-05",62.41],["2025-06",62.69],["2025-07",63.42],["2025-08",62.94],["2025-09",62.74],["2025-10",62.96],["2025-11",63.73],["2025-12",64.67]],"origen":"demo"},"geometry":{"type":"Point","coordinates":[-75.282,9.274]}},{"type":"Feature","properties":{"codigo":"POZ-SIN-05","nombre":"Chochó","municipio":"Sincelejo","profundidad_m":300,"cota_terreno_msnm":191,"nivel_estatico_m":71.42,"cota_piezometrica_msnm":119.58,"tendencia_m_ano":0.87,"descenso_acumulado_m":13.18,"minimo_m":56.76,"maximo_m":71.42,"promedio_m":64.33,"periodo":"2010-2025","n_registros":192,"serie":[["2010-01",58.24],["2010-02",57.8],["2010-03",57.67],["2010-04",58.03],["2010-05",57.77],["2010-06",57.2],["2010-07",57.84],["2010-08",57.67],["2010-09",56.76],["2010-10",57.05],["2010-11",57.65],["2010-12",58.42],["2011-01",59.04],["2011-02",59.15],["2011-03",59.61],["2011-04",59.08],["2011-05",58.8],["2011-06",58.24],["2011-07",58.54],["2011-08",58.49],["2011-09",58.03],["2011-10",57.96],["2011-11",58.82],["2011-12",59.23],["2012-01",59.21],["2012-02",59.73],["2012-03",59.87],["2012-04",60.32],["2012-05",59.51],["2012-06",59.35],["2012-07",60.01],["2012-08",59.89],["2012-09",59.5],["2012-10",59.66],["2012-11",60.23],["2012-12",61.02],["2013-01",60.93],["2013-02",60.83],["2013-03",61.5],["2013-04",61.18],["2013-05",60.28],["2013-06",59.97],["2013-07",60.32],["2013-08",60.34],["2013-09",60.11],["2013-10",59.86],["2013-11",60.67],["2013-12",60.89],["2014-01",61.52],["2014-02",61.6],["2014-03",61.78],["2014-04",61.56],["2014-05",60.62],["2014-06",60.96],["2014-07",61.18],["2014-08",61.1],["2014-09",60.62],["2014-10",60.63],["2014-11",61.35],["2014-12",62.18],["2015-01",61.88],["2015-02",62.89],["2015-03",63.05],["2015-04",62.46],["2015-05",61.25],["2015-06",61.06],["2015-07",61.93],["2015-08",61.68],["2015-09",61.47],["2015-10",61.2],["2015-11",61.73],["2015-12",62.77],["2016-01",63.06],["2016-02",63.93],["2016-03",63.78],["2016-04",63.61],["2016-05",62.24],["2016-06",62.67],["2016-07",62.91],["2016-08",62.58],["2016-09",62.11],["2016-10",62.46],["2016-11",63.33],["2016-12",63.55],["2017-01",64.18],["2017-02",64.27],["2017-03",64.89],["2017-04",65.44],["2017-05",64.56],["2017-06",64.4],["2017-07",64.66],["2017-08",64.5],["2017-09",63.94],["2017-10",63.56],["2017-11",64.04],["2017-12",64.39],["2018-01",64.94],["2018-02",65.17],["2018-03",64.82],["2018-04",64.25],["2018-05",63.36],["2018-06",62.84],["2018-07",63.96],["2018-08",63.47],["2018-09",63.07],["2018-10",63.71],["2018-11",64.17],["2018-12",65.1],["2019-01",65.54],["2019-02",65.62],["2019-03",66.21],["2019-04",66.33],["2019-05",65.67],["2019-06",65.41],["2019-07",65.74],["2019-08",65.76],["2019-09",65.32],["2019-10",65.43],["2019-11",65.91],["2019-12",66.65],["2020-01",67.34],["2020-02",66.93],["2020-03",67.27],["2020-04",66.79],["2020-05",65.72],["2020-06",65.63],["2020-07",66.45],["2020-08",66.06],["2020-09",66.57],["2020-10",66.27],["2020-11",66.69],["2020-12",66.65],["2021-01",67.58],["2021-02",67.71],["2021-03",68.0],["2021-04",67.53],["2021-05",66.17],["2021-06",66.09],["2021-07",66.6],["2021-08",66.82],["2021-09",66.81],["2021-10",67.15],["2021-11",67.46],["2021-12",67.74],["2022-01",68.34],["2022-02",68.55],["2022-03",69.11],["2022-04",68.67],["2022-05",67.81],["2022-06",67.42],["2022-07",67.97],["2022-08",67.8],["2022-09",67.62],["2022-10",67.42],["2022-11",68.12],["2022-12",68.87],["2023-01",69.72],["2023-02",70.15],["2023-03",70.04],["2023-04",69.66],["2023-05",68.8],["2023-06",68.56],["2023-07",69.42],["2023-08",69.12],["2023-09",69.13],["2023-10",68.6],["2023-11",69.0],["2023-12",69.99],["2024-01",70.81],["2024-02",70.64],["2024-03",71.25],["2024-04",70.84],["2024-05",70.6],["2024-06",70.17],["2024-07",70.24],["2024-08",69.99],["2024-09",69.11],["2024-10",69.22],["2024-11",69.41],["2024-12",70.24],["2025-01",70.87],["2025-02",70.75],["2025-03",71.12],["2025-04",70.72],["2025-05",70.13],["2025-06",70.13],["2025-07",70.64],["2025-08",70.21],["2025-09",69.8],["2025-10",70.13],["2025-11",70.98],["2025-12",71.42]],"origen":"demo"},"geometry":{"type":"Point","coordinates":[-75.352,9.262]}},{"type":"Feature","properties":{"codigo":"POZ-COR-03","nombre":"Hato Nuevo","municipio":"Corozal","profundidad_m":270,"cota_terreno_msnm":178,"nivel_estatico_m":60.38,"cota_piezometrica_msnm":117.62,"tendencia_m_ano":0.66,"descenso_acumulado_m":10.43,"minimo_m":49.22,"maximo_m":60.61,"promedio_m":54.97,"periodo":"2010-2025","n_registros":192,"serie":[["2010-01",49.95],["2010-02",50.65],["2010-03",50.84],["2010-04",49.92],["2010-05",49.5],["2010-06",49.49],["2010-07",50.24],["2010-08",49.82],["2010-09",49.22],["2010-10",49.38],["2010-11",49.76],["2010-12",50.23],["2011-01",51.22],["2011-02",51.46],["2011-03",51.54],["2011-04",51.36],["2011-05",50.5],["2011-06",50.6],["2011-07",50.56],["2011-08",50.39],["2011-09",50.13],["2011-10",49.48],["2011-11",50.19],["2011-12",51.01],["2012-01",51.29],["2012-02",51.72],["2012-03",51.59],["2012-04",51.68],["2012-05",51.25],["2012-06",50.74],["2012-07",51.48],["2012-08",51.76],["2012-09",51.12],["2012-10",50.85],["2012-11",51.54],["2012-12",52.32],["2013-01",52.53],["2013-02",52.61],["2013-03",52.64],["2013-04",52.1],["2013-05",51.35],["2013-06",51.26],["2013-07",51.54],["2013-08",51.78],["2013-09",51.43],["2013-10",51.18],["2013-11",51.8],["2013-12",52.54],["2014-01",52.87],["2014-02",53.19],["2014-03",53.37],["2014-04",53.29],["2014-05",52.75],["2014-06",52.38],["2014-07",52.45],["2014-08",52.72],["2014-09",52.3],["2014-10",52.41],["2014-11",52.95],["2014-12",53.7],["2015-01",53.75],["2015-02",53.82],["2015-03",53.58],["2015-04",52.84],["2015-05",51.94],["2015-06",52.51],["2015-07",53.06],["2015-08",53.54],["2015-09",52.88],["2015-10",52.7],["2015-11",53.53],["2015-12",54.3],["2016-01",55.37],["2016-02",55.59],["2016-03",55.12],["2016-04",55.44],["2016-05",53.99],["2016-06",53.67],["2016-07",53.87],["2016-08",53.57],["2016-09",53.27],["2016-10",53.21],["2016-11",53.37],["2016-12",54.21],["2017-01",54.75],["2017-02",55.55],["2017-03",55.71],["2017-04",55.52],["2017-05",54.93],["2017-06",55.17],["2017-07",55.36],["2017-08",54.94],["2017-09",54.37],["2017-10",54.22],["2017-11",54.47],["2017-12",55.7],["2018-01",55.9],["2018-02",56.43],["2018-03",56.68],["2018-04",56.35],["2018-05",55.15],["2018-06",55.18],["2018-07",55.59],["2018-08",55.44],["2018-09",54.87],["2018-10",54.37],["2018-11",55.41],["2018-12",56.19],["2019-01",56.25],["2019-02",56.75],["2019-03",56.78],["2019-04",56.09],["2019-05",55.29],["2019-06",54.97],["2019-07",55.58],["2019-08",55.11],["2019-09",54.81],["2019-10",54.85],["2019-11",55.23],["2019-12",56.28],["2020-01",56.68],["2020-02",56.93],["2020-03",56.93],["2020-04",56.37],["2020-05",55.52],["2020-06",55.44],["2020-07",56.25],["2020-08",55.97],["2020-09",55.9],["2020-10",56.31],["2020-11",56.83],["2020-12",57.41],["2021-01",57.53],["2021-02",58.07],["2021-03",58.25],["2021-04",57.96],["2021-05",57.5],["2021-06",57.24],["2021-07",57.5],["2021-08",57.5],["2021-09",56.74],["2021-10",56.44],["2021-11",56.77],["2021-12",57.66],["2022-01",58.24],["2022-02",58.21],["2022-03",58.69],["2022-04",57.92],["2022-05",57.28],["2022-06",57.11],["2022-07",57.62],["2022-08",57.84],["2022-09",56.86],["2022-10",56.71],["2022-11",57.96],["2022-12",58.78],["2023-01",58.4],["2023-02",58.71],["2023-03",58.75],["2023-04",58.42],["2023-05",58.14],["2023-06",57.72],["2023-07",57.8],["2023-08",58.08],["2023-09",58.01],["2023-10",57.45],["2023-11",58.44],["2023-12",58.91],["2024-01",59.52],["2024-02",59.4],["2024-03",60.02],["2024-04",59.76],["2024-05",59.06],["2024-06",58.87],["2024-07",59.31],["2024-08",59.14],["2024-09",58.78],["2024-10",58.43],["2024-11",59.53],["2024-12",60.04],["2025-01",60.61],["2025-02",60.59],["2025-03",60.3],["2025-04",60.3],["2025-05",59.29],["2025-06",59.3],["2025-07",59.36],["2025-08",59.2],["2025-09",59.28],["2025-10",59.12],["2025-11",59.37],["2025-12",60.38]],"origen":"demo"},"geometry":{"type":"Point","coordinates":[-75.265,9.345]}}]}