{"type":"FeatureCollection","features":[{"type":"Feature","properties":{"nombre":"Zona de recarga directa","unidad":"Afloramiento Fm. Morroa (Tpm)","recarga_mm_ano":172,"fuente":"Mapa de Recarga Anual 2023 (IDEAM / Google Earth Engine)"},"geometry":{"type":"Polygon","coordinates":[[[-75.25,9.55],[-75.27,9.5],[-75.29,9.45],[-75.31,9.4],[-75.33,9.355],[-75.348,9.315],[-75.368,9.27],[-75.383,9.225],[-75.398,9.18],[-75.406,9.145],[-75.365,9.142],[-75.353,9.18],[-75.338,9.225],[-75.323,9.27],[-75.303,9.315],[-75.283,9.355],[-75.263,9.4],[-75.243,9.45],[-75.223,9.5],[-75.203,9.55],[-75.25,9.55]]]}}]}